[{"OBJECT_NAME":"OBJECT F","OBJECT_ID":"2023-072F","EPOCH":"2026-03-09T23:31:37.259904","MEAN_MOTION":15.29470958,"ECCENTRICITY":0.00062878,"INCLINATION":97.5173,"RA_OF_ASC_NODE":265.798,"ARG_OF_PERICENTER":19.0017,"MEAN_ANOMALY":341.1456,"EPHEMERIS_TYPE":0,"CLASSIFICATION_TYPE":"U","NORAD_CAT_ID":56748,"ELEMENT_SET_NO":999,"REV_AT_EPOCH":15460,"BSTAR":0.00043416252,"MEAN_MOTION_DOT":0.00012341,"MEAN_MOTION_DDOT":0},{"OBJECT_NAME":"STARLINK-34996","OBJECT_ID":"2025-176AB","EPOCH":"2026-03-09T12:24:39.098016","MEAN_MOTION":15.30177434,"ECCENTRICITY":0.00012545,"INCLINATION":53.1572,"RA_OF_ASC_NODE":153.5555,"ARG_OF_PERICENTER":95.2899,"MEAN_ANOMALY":264.8244,"EPHEMERIS_TYPE":0,"CLASSIFICATION_TYPE":"U","NORAD_CAT_ID":65223,"ELEMENT_SET_NO":999,"REV_AT_EPOCH":3309,"BSTAR":0.001334785,"MEAN_MOTION_DOT":0.00039355,"MEAN_MOTION_DDOT":0}]
